GLOBALSTAR M045         
1 25676U 99019A   25221.23600154 -.00000104  00000+0 -93905-4 0  9993
2 25676  51.9959 154.0685 0000663   4.8898 161.3158 12.27064423200140
GLOBALSTAR M019         
1 25677U 99019B   25221.44829911 -.00000144  00000+0 -56450-3 0  9998
2 25677  51.9880 287.5806 0001481  90.3747 282.6785 12.13875464191808
GLOBALSTAR M044         
1 25678U 99019C   25221.16355948 -.00000066  00000+0  24432-3 0  9999
2 25678  51.9944 246.3599 0006173 144.3693 245.6625 11.90254174177613
GLOBALSTAR M042         
1 25679U 99019D   25221.13922620 -.00000075  00000+0  16072-3 0  9995
2 25679  52.0000 261.4721 0002913  52.9934 345.1837 12.22085246191800
GLOBALSTAR M025         
1 25770U 99031A   25220.74087067 -.00000058  00000+0  30513-3 0  9991
2 25770  51.9836  37.5258 0001220 218.0621 154.4839 11.22563811487610
GLOBALSTAR M049         
1 25771U 99031B   25221.46898295 -.00000078  00000+0 -45617-3 0  9999
2 25771  51.9879  73.2817 0003570  89.2381 270.8824 11.12117544123359
GLOBALSTAR M047         
1 25772U 99031C   25220.86896636 -.00000057  00000+0  35716-3 0  9995
2 25772  51.9838  66.5775 0016698 356.1103   3.9571 11.31929275477074
GLOBALSTAR M052         
1 25773U 99031D   25220.60749683 -.00000130  00000+0 -21547-2 0  9996
2 25773  51.9838 183.1698 0002751 269.0612 262.3347 11.15060399142185
